{
  "norad_id": 61728,
  "name": "STARLINK-32475",
  "history": [
    {
      "epoch": "2026-03-28T22:20:59.427168Z",
      "apogee_km": 476.05027733261704,
      "perigee_km": 474.4448034701818,
      "latitude_deg": 1.2949395698445675e-05,
      "longitude_deg": -149.70821484080605,
      "height_km": 476.1132513508877,
      "semi_major_axis_km": 6853.384540401399,
      "eccentricity": 0.00011713,
      "inclination_deg": 53.1617,
      "raan_deg": 11.884,
      "arg_perigee_deg": 87.667,
      "mean_anomaly_deg": 272.4465,
      "mean_motion_rev_day": 15.30189125
    },
    {
      "epoch": "2026-03-29T01:29:05.575776Z",
      "apogee_km": 475.87500257416923,
      "perigee_km": 474.5468237485993,
      "latitude_deg": -5.129516830308914e-05,
      "longitude_deg": 162.53376653208022,
      "height_km": 476.0760520210959,
      "semi_major_axis_km": 6853.347913161384,
      "eccentricity": 9.69e-05,
      "inclination_deg": 53.1621,
      "raan_deg": 11.2804,
      "arg_perigee_deg": 87.1017,
      "mean_anomaly_deg": 273.0094,
      "mean_motion_rev_day": 15.30201392
    },
    {
      "epoch": "2026-03-30T00:59:54.885408Z",
      "apogee_km": 476.0564727571318,
      "perigee_km": 474.4775855368962,
      "latitude_deg": 5.5918759292541434e-05,
      "longitude_deg": 164.30781690182468,
      "height_km": 475.9877331452703,
      "semi_major_axis_km": 6853.404029147014,
      "eccentricity": 0.00011519,
      "inclination_deg": 53.1626,
      "raan_deg": 6.7255,
      "arg_perigee_deg": 76.9811,
      "mean_anomaly_deg": 283.1319,
      "mean_motion_rev_day": 15.30182598
    },
    {
      "epoch": "2026-03-30T11:58:16.807296Z",
      "apogee_km": 476.10766838227573,
      "perigee_km": 474.38870231008605,
      "latitude_deg": 2.6086599634883876e-08,
      "longitude_deg": -2.857900487822375,
      "height_km": 476.45477424667905,
      "semi_major_axis_km": 6853.38518534618,
      "eccentricity": 0.00012541,
      "inclination_deg": 53.1632,
      "raan_deg": 4.6018,
      "arg_perigee_deg": 111.0024,
      "mean_anomaly_deg": 249.1111,
      "mean_motion_rev_day": 15.30188909
    },
    {
      "epoch": "2026-03-31T11:29:06.511776Z",
      "apogee_km": 476.3069611811079,
      "perigee_km": 474.28602071329715,
      "latitude_deg": -2.5031344735378232e-05,
      "longitude_deg": -1.0776976351470113,
      "height_km": 475.94305513050875,
      "semi_major_axis_km": 6853.433490947202,
      "eccentricity": 0.00014744,
      "inclination_deg": 53.1627,
      "raan_deg": 0.0548,
      "arg_perigee_deg": 75.5832,
      "mean_anomaly_deg": 284.5332,
      "mean_motion_rev_day": 15.30172731
    },
    {
      "epoch": "2026-04-01T10:59:52.291968Z",
      "apogee_km": 476.1217365567927,
      "perigee_km": 474.3234150041071,
      "latitude_deg": 2.8678572288995316e-05,
      "longitude_deg": 0.7121599110384078,
      "height_km": 476.4360151990151,
      "semi_major_axis_km": 6853.35957578045,
      "eccentricity": 0.0001312,
      "inclination_deg": 53.1623,
      "raan_deg": 355.501,
      "arg_perigee_deg": 110.5122,
      "mean_anomaly_deg": 249.602,
      "mean_motion_rev_day": 15.30197486
    },
    {
      "epoch": "2026-04-02T16:46:53.126400Z",
      "apogee_km": 475.98909650447877,
      "perigee_km": 474.44709160831644,
      "latitude_deg": 1.919590748549198e-05,
      "longitude_deg": -93.02909035248844,
      "height_km": 476.3479386489353,
      "semi_major_axis_km": 6853.355094056397,
      "eccentricity": 0.0001125,
      "inclination_deg": 53.1608,
      "raan_deg": 349.7364,
      "arg_perigee_deg": 107.4672,
      "mean_anomaly_deg": 252.6452,
      "mean_motion_rev_day": 15.30198987
    },
    {
      "epoch": "2026-04-02T23:03:05.435712Z",
      "apogee_km": 475.87874244233535,
      "perigee_km": 474.5378169049136,
      "latitude_deg": 6.458375587265586e-05,
      "longitude_deg": 171.45055156671617,
      "height_km": 476.178997835323,
      "semi_major_axis_km": 6853.345279673624,
      "eccentricity": 9.783e-05,
      "inclination_deg": 53.1604,
      "raan_deg": 348.5248,
      "arg_perigee_deg": 96.1827,
      "mean_anomaly_deg": 263.9286,
      "mean_motion_rev_day": 15.30202274
    },
    {
      "epoch": "2026-04-03T20:59:51.870624Z",
      "apogee_km": 476.1973989866701,
      "perigee_km": 474.34697850570865,
      "latitude_deg": -5.825098570165873e-05,
      "longitude_deg": -162.88961850703248,
      "height_km": 475.94567737183394,
      "semi_major_axis_km": 6853.409188746189,
      "eccentricity": 0.000135,
      "inclination_deg": 53.1596,
      "raan_deg": 344.2795,
      "arg_perigee_deg": 75.9575,
      "mean_anomaly_deg": 284.1575,
      "mean_motion_rev_day": 15.3018087
    },
    {
      "epoch": "2026-04-04T20:30:40.723200Z",
      "apogee_km": 476.17527630254153,
      "perigee_km": 474.47698813837815,
      "latitude_deg": -6.799059910764992e-06,
      "longitude_deg": -161.11140140708508,
      "height_km": 475.91859715347897,
      "semi_major_axis_km": 6853.46313222046,
      "eccentricity": 0.0001239,
      "inclination_deg": 53.1608,
      "raan_deg": 339.7269,
      "arg_perigee_deg": 68.8888,
      "mean_anomaly_deg": 291.2245,
      "mean_motion_rev_day": 15.30162804
    },
    {
      "epoch": "2026-04-05T09:03:05.194080Z",
      "apogee_km": 475.9687073634286,
      "perigee_km": 474.6039166450764,
      "latitude_deg": -2.1522848962666563e-05,
      "longitude_deg": 7.8450199372262555,
      "height_km": 476.37642534839625,
      "semi_major_axis_km": 6853.423312004253,
      "eccentricity": 9.957e-05,
      "inclination_deg": 53.16,
      "raan_deg": 337.3003,
      "arg_perigee_deg": 106.3086,
      "mean_anomaly_deg": 253.8024,
      "mean_motion_rev_day": 15.3017614
    },
    {
      "epoch": "2026-04-05T16:53:21.592896Z",
      "apogee_km": 476.1302106193498,
      "perigee_km": 474.51142388291555,
      "latitude_deg": 5.318490474534405e-07,
      "longitude_deg": -111.56138326129425,
      "height_km": 476.2004641795128,
      "semi_major_axis_km": 6853.457817251133,
      "eccentricity": 0.0001181,
      "inclination_deg": 53.1597,
      "raan_deg": 335.7841,
      "arg_perigee_deg": 88.69,
      "mean_anomaly_deg": 271.4236,
      "mean_motion_rev_day": 15.30164584
    },
    {
      "epoch": "2026-04-06T00:43:37.113024Z",
      "apogee_km": 476.27588734246456,
      "perigee_km": 474.26482348809077,
      "latitude_deg": -1.1847803871384278e-06,
      "longitude_deg": 129.03406703264596,
      "height_km": 476.0704381440629,
      "semi_major_axis_km": 6853.407355415277,
      "eccentricity": 0.00014672,
      "inclination_deg": 53.1596,
      "raan_deg": 334.2661,
      "arg_perigee_deg": 84.4253,
      "mean_anomaly_deg": 275.6915,
      "mean_motion_rev_day": 15.30181484
    },
    {
      "epoch": "2026-04-07T08:04:39.898560Z",
      "apogee_km": 475.88201893587666,
      "perigee_km": 474.5417780252901,
      "latitude_deg": -2.016792552755979e-05,
      "longitude_deg": 11.41761256799488,
      "height_km": 476.1749444378052,
      "semi_major_axis_km": 6853.348898480584,
      "eccentricity": 9.778e-05,
      "inclination_deg": 53.1591,
      "raan_deg": 328.1988,
      "arg_perigee_deg": 95.5375,
      "mean_anomaly_deg": 264.5737,
      "mean_motion_rev_day": 15.30201062
    },
    {
      "epoch": "2026-04-07T20:37:05.619648Z",
      "apogee_km": 475.94373280671607,
      "perigee_km": 474.50589749789833,
      "latitude_deg": -6.512484613331323e-06,
      "longitude_deg": -179.63056912413361,
      "height_km": 476.2090787124676,
      "semi_major_axis_km": 6853.361815152307,
      "eccentricity": 0.0001049,
      "inclination_deg": 53.1596,
      "raan_deg": 325.7728,
      "arg_perigee_deg": 96.8643,
      "mean_anomaly_deg": 263.2477,
      "mean_motion_rev_day": 15.30196736
    },
    {
      "epoch": "2026-04-08T15:25:43.813344Z",
      "apogee_km": 475.8410214821497,
      "perigee_km": 474.6027565980776,
      "latitude_deg": -6.113122683203587e-06,
      "longitude_deg": -106.20483590097106,
      "height_km": 476.1547383780138,
      "semi_major_axis_km": 6853.358889040113,
      "eccentricity": 9.034e-05,
      "inclination_deg": 53.1589,
      "raan_deg": 322.1302,
      "arg_perigee_deg": 93.1849,
      "mean_anomaly_deg": 266.9255,
      "mean_motion_rev_day": 15.30197716
    }
  ]
}